IRIDIUM 39              
1 25042U 97069D   25361.78778273  .00000923  00000+0  23496-3 0  9990
2 25042  86.3930 128.1785 0018378  26.1338 334.0790 14.49528035477001
IRIDIUM 38              
1 25043U 97069E   25361.93526250  .00000669  00000+0  21349-3 0  9996
2 25043  86.3981 151.7184 0002792 135.8980 224.2441 14.38329363473805
IRIDIUM 42              
1 25077U 97077A   25361.97127962  .00000595  00000+0  19615-3 0  9994
2 25077  86.3986 158.1097 0001954 114.8427 245.2973 14.36545942469015
IRIDIUM 44              
1 25078U 97077B   25361.88854189  .00000539  00000+0  16343-3 0  9996
2 25078  86.3978 139.5630 0003888 101.5321 258.6315 14.40444989471584
IRIDIUM 45              
1 25104U 97082A   25361.89720370  .00042145  00000+0  11694-2 0  9999
2 25104  86.3542 313.2039 0094135 323.2983  36.1842 15.32304108481593
IRIDIUM 24              
1 25105U 97082B   25361.74873397  .00000581  00000+0  16974-3 0  9997
2 25105  86.3907 358.1824 0012334 148.6877 211.5061 14.42341973471111
IRIDIUM 51              
1 25262U 98018A   25361.30212679  .00114725  00000+0  10919-2 0  9991
2 25262  86.3725 318.7506 0046174 210.3903 149.4687 15.65067859476929
IRIDIUM 57              
1 25273U 98019B   25361.89252034  .00000438  00000+0  14405-3 0  9997
2 25273  86.3945  64.0338 0002245  97.4636 262.6816 14.36062829452584
